NORAD_CAT_ID,OBJECT_NAME,OBJECT_TYPE,EPOCH,MEAN_MOTION,ECCENTRICITY,INCLINATION,RA_OF_ASC_NODE,ARG_OF_PERICENTER,MEAN_ANOMALY,BSTAR,MEAN_MOTION_DOT,MEAN_MOTION_DDOT,TLE_LINE0,TLE_LINE1,TLE_LINE2,SEMIMAJOR_AXIS,PERIOD,APOGEE,PERIGEE,DECAYED
49434.0,STARLINK-3134,PAYLOAD,2023-05-26 03:47:05,15.08839474,0.0001314,53.2162,121.4963,83.5237,276.5905,-3.1048e-05,-7.82e-06,0.0,0 STARLINK-3134,1 49434U 21104AC  23146.15770373 -.00000782  00000-0 -31048-4 0  9990,2 49434  53.2162 121.4963 0001314  83.5237 276.5905 15.08839474 85958,6917.882,95.438,540.656,538.838,0.0
49434.0,STARLINK-3134,PAYLOAD,2023-05-26 05:22:28,15.08839255,0.0001331,53.2162,121.199,83.9108,276.2036,-1.4986e-05,-5.26e-06,0.0,0 STARLINK-3134,1 49434U 21104AC  23146.22394327 -.00000526  00000-0 -14986-4 0  9997,2 49434  53.2162 121.1990 0001331  83.9108 276.2036 15.08839255 85965,6917.883,95.438,540.668,538.827,0.0
49434.0,STARLINK-3134,PAYLOAD,2023-05-27 05:13:15,15.08834964,0.0001317,53.2165,116.741,87.6801,272.4342,4.2644e-05,3.91e-06,0.0,0 STARLINK-3134,1 49434U 21104AC  23147.21754625  .00000391  00000-0  42644-4 0  9998,2 49434  53.2165 116.7410 0001317  87.6801 272.4342 15.08834964 86118,6917.896,95.438,540.672,538.85,0.0
49434.0,STARLINK-3134,PAYLOAD,2023-05-27 14:45:34,15.08834151,0.000133,53.2166,114.9566,87.1898,272.9247,3.5491e-05,2.77e-06,0.0,0 STARLINK-3134,1 49434U 21104AC  23147.61498829  .00000277  00000-0  35491-4 0  9998,2 49434  53.2166 114.9566 0001330  87.1898 272.9247 15.08834151 86170,6917.898,95.438,540.683,538.843,0.0
49434.0,STARLINK-3134,PAYLOAD,2023-05-28 05:04:03,15.08835895,0.0001326,53.2168,112.2804,93.3214,266.793,4.2984e-05,3.96e-06,0.0,0 STARLINK-3134,1 49434U 21104AC  23148.21114903  .00000396  00000-0  42984-4 0  9990,2 49434  53.2168 112.2804 0001326  93.3214 266.7930 15.08835895 86260,6917.893,95.438,540.675,538.841,0.0
49434.0,STARLINK-3134,PAYLOAD,2023-05-29 04:54:49,15.0884524,0.0001321,53.2173,107.82,92.4902,267.6242,9.1969e-05,1.176e-05,0.0,0 STARLINK-3134,1 49434U 21104AC  23149.20474207  .00001176  00000-0  91969-4 0  9990,2 49434  53.2173 107.8200 0001321  92.4902 267.6242 15.08845240 86413,6917.864,95.437,540.643,538.816,0.0
49434.0,STARLINK-3134,PAYLOAD,2023-05-29 20:48:41,15.08836651,0.0001331,53.2175,104.8509,79.3738,280.7404,4.4001e-05,4.12e-06,0.0,0 STARLINK-3134,1 49434U 21104AC  23149.86714998  .00000412  00000-0  44001-4 0  9993,2 49434  53.2175 104.8509 0001331  79.3738 280.7404 15.08836651 86519,6917.891,95.438,540.676,538.835,0.0
49434.0,STARLINK-3134,PAYLOAD,2023-05-30 03:10:14,15.0883259,0.0001441,53.2174,103.6563,87.0476,273.0681,-9.3551e-07,-3.03e-06,0.0,0 STARLINK-3134,1 49434U 21104AC  23150.13211488 -.00000303  00000-0 -93551-6 0  9998,2 49434  53.2174 103.6563 0001441  87.0476 273.0681 15.08832590 86556,6917.903,95.438,540.765,538.771,0.0
49434.0,STARLINK-3134,PAYLOAD,2023-05-31 03:01:00,15.08848258,0.0001357,53.2185,99.1947,94.995,265.1198,6.8316e-05,8e-06,0.0,0 STARLINK-3134,1 49434U 21104AC  23151.12570153  .00000800  00000-0  68316-4 0  9994,2 49434  53.2185  99.1947 0001357  94.9950 265.1198 15.08848258 86703,6917.855,95.437,540.659,538.781,0.0
49434.0,STARLINK-3134,PAYLOAD,2023-05-31 06:11:46,15.08865432,0.0001464,53.2177,98.5988,93.0773,267.0387,-8.4798e-05,-1.638e-05,0.0,0 STARLINK-3134,1 49434U 21104AC  23151.25817531 -.00001638  00000-0 -84798-4 0  9996,2 49434  53.2177  98.5988 0001464  93.0773 267.0387 15.08865432 86720,6917.803,95.436,540.68,538.655,0.0
49434.0,STARLINK-3134,PAYLOAD,2023-05-31 20:30:15,15.0883989,0.0001471,53.2157,95.9218,94.8433,265.2727,7.4609e-05,9e-06,0.0,0 STARLINK-3134,1 49434U 21104AC  23151.85434521  .00000900  00000-0  74609-4 0  9995,2 49434  53.2157  95.9218 0001471  94.8433 265.2727 15.08839890 86812,6917.881,95.438,540.763,538.728,0.0
49434.0,STARLINK-3134,PAYLOAD,2023-06-01 02:51:47,15.08842307,0.0001446,53.2163,94.7305,115.6842,244.4299,6.0412e-05,6.74e-06,0.0,0 STARLINK-3134,1 49434U 21104AC  23152.11930444  .00000674  00000-0  60412-4 0  9995,2 49434  53.2163  94.7305 0001446 115.6842 244.4299 15.08842307 86855,6917.873,95.437,540.739,538.738,0.0
49434.0,STARLINK-3134,PAYLOAD,2023-06-01 06:02:34,15.0884066,0.0001375,53.2165,94.1372,107.3929,252.7213,5.3736e-05,5.67e-06,0.0,0 STARLINK-3134,1 49434U 21104AC  23152.25178481  .00000567  00000-0  53736-4 0  9997,2 49434  53.2165  94.1372 0001375 107.3929 252.7213 15.08840660 86870,6917.878,95.438,540.695,538.792,0.0
49434.0,STARLINK-3134,PAYLOAD,2023-06-02 02:42:35,15.0883689,0.0001546,53.2172,90.2744,86.4298,273.6871,-4.4751e-05,-1e-05,0.0,0 STARLINK-3134,1 49434U 21104AC  23153.11291360 -.00001000  00000-0 -44751-4 0  9997,2 49434  53.2172  90.2744 0001546  86.4298 273.6871 15.08836890 87002,6917.89,95.438,540.824,538.685,0.0
49434.0,STARLINK-3134,PAYLOAD,2023-06-03 02:33:22,15.08840299,0.000115,53.217,85.8151,85.9438,274.1686,7.5528e-05,9.14e-06,0.0,0 STARLINK-3134,1 49434U 21104AC  23154.10651024  .00000914  00000-0  75528-4 0  9991,2 49434  53.2170  85.8151 0001150  85.9438 274.1686 15.08840299 87157,6917.879,95.438,540.54,538.949,0.0
49434.0,STARLINK-3134,PAYLOAD,2023-06-04 02:24:10,15.08834957,0.0001142,53.2168,81.3554,89.2108,270.9014,8.3747e-05,1.045e-05,0.0,0 STARLINK-3134,1 49434U 21104AC  23155.10011731  .00001045  00000-0  83747-4 0  9995,2 49434  53.2168  81.3554 0001142  89.2108 270.9014 15.08834957 87304,6917.896,95.438,540.551,538.971,0.0
49434.0,STARLINK-3134,PAYLOAD,2023-06-04 13:31:52,15.08836217,0.000114,53.2168,79.2737,87.9518,272.1604,8.6217e-05,1.084e-05,0.0,0 STARLINK-3134,1 49434U 21104AC  23155.56379774  .00001084  00000-0  86217-4 0  9997,2 49434  53.2168  79.2737 0001140  87.9518 272.1604 15.08836217 87378,6917.892,95.438,540.546,538.968,0.0
49434.0,STARLINK-3134,PAYLOAD,2023-06-05 03:50:19,15.08850343,0.0001136,53.2167,76.5973,94.2498,265.8624,0.00010689,1.414e-05,0.0,0 STARLINK-3134,1 49434U 21104AC  23156.15994774  .00001414  00000-0  10689-3 0  9992,2 49434  53.2167  76.5973 0001136  94.2498 265.8624 15.08850343 87469,6917.849,95.437,540.5,538.928,0.0
49434.0,STARLINK-3134,PAYLOAD,2023-06-05 11:47:15,15.08841988,0.0001219,53.2173,75.1096,81.3176,278.7954,7.3448e-05,8.81e-06,0.0,0 STARLINK-3134,1 49434U 21104AC  23156.49115372  .00000881  00000-0  73448-4 0  9998,2 49434  53.2173  75.1096 0001219  81.3176 278.7954 15.08841988 87519,6917.874,95.437,540.583,538.896,0.0
49434.0,STARLINK-3134,PAYLOAD,2023-06-05 13:22:38,15.08841165,0.0001248,53.2169,74.8127,83.6412,276.4722,6.8729e-05,8.06e-06,0.0,0 STARLINK-3134,1 49434U 21104AC  23156.55739429  .00000806  00000-0  68729-4 0  9993,2 49434  53.2169  74.8127 0001248  83.6412 276.4722 15.08841165 87521,6917.877,95.437,540.605,538.878,0.0
49434.0,STARLINK-3134,PAYLOAD,2023-06-06 13:13:26,15.08837006,0.0001218,53.2162,70.3507,79.6956,280.4173,1.8127e-05,1e-08,0.0,0 STARLINK-3134,1 49434U 21104AC  23157.55099810  .00000001  00000-0  18127-4 0  9991,2 49434  53.2162  70.3507 0001218  79.6956 280.4173 15.08837006 87672,6917.89,95.438,540.597,538.912,0.0
49434.0,STARLINK-3134,PAYLOAD,2023-06-06 17:59:35,15.08836974,0.0001173,53.2167,69.4589,92.191,267.9216,-1.2701e-05,-4.9e-06,0.0,0 STARLINK-3134,1 49434U 21104AC  23157.74971898 -.00000490  00000-0 -12701-4 0  9993,2 49434  53.2167  69.4589 0001173  92.1910 267.9216 15.08836974 87701,6917.89,95.438,540.566,538.943,0.0
49434.0,STARLINK-3134,PAYLOAD,2023-06-07 03:31:53,15.0884938,0.0001234,53.2168,67.6745,100.9388,259.1743,3.0006e-05,1.9e-06,0.0,0 STARLINK-3134,1 49434U 21104AC  23158.14714925  .00000190  00000-0  30006-4 0  9997,2 49434  53.2168  67.6745 0001234 100.9388 259.1743 15.08849380 87760,6917.852,95.437,540.57,538.863,0.0
49434.0,STARLINK-3134,PAYLOAD,2023-06-07 13:04:13,15.08836667,0.0001465,53.2169,65.8878,107.5678,252.5474,-2.999e-05,-7.65e-06,0.0,0 STARLINK-3134,1 49434U 21104AC  23158.54459899 -.00000765  00000-0 -29990-4 0  9997,2 49434  53.2169  65.8878 0001465 107.5678 252.5474 15.08836667 87828,6917.891,95.438,540.769,538.742,0.0
49434.0,STARLINK-3134,PAYLOAD,2023-06-07 17:50:22,15.08839559,0.0001747,53.2151,64.9984,86.9371,273.1821,-8.445e-05,-1.632e-05,0.0,0 STARLINK-3134,1 49434U 21104AC  23158.74332050 -.00001632  00000-0 -84450-4 0  9994,2 49434  53.2151  64.9984 0001747  86.9371 273.1821 15.08839559 87851,6917.882,95.438,540.955,538.538,0.0
49434.0,STARLINK-3134,PAYLOAD,2023-06-07 21:01:09,15.0883069,0.000144,53.2161,64.4019,105.5953,254.5198,1.7011e-05,-1.7e-07,0.0,0 STARLINK-3134,1 49434U 21104AC  23158.87580204 -.00000017  00000-0  17011-4 0  9998,2 49434  53.2161  64.4019 0001440 105.5953 254.5198 15.08830690 87879,6917.909,95.438,540.77,538.778,0.0
49434.0,STARLINK-3134,PAYLOAD,2023-06-08 03:22:41,15.08841509,0.0001303,53.2172,63.215,83.9436,276.1705,1.9204e-05,1.8e-07,0.0,0 STARLINK-3134,1 49434U 21104AC  23159.14075717  .00000018  00000-0  19204-4 0  9993,2 49434  53.2172  63.2150 0001303  83.9436 276.1705 15.08841509 87917,6917.876,95.437,540.642,538.839,0.0
49434.0,STARLINK-3134,PAYLOAD,2023-06-08 22:27:19,15.08839959,0.000133,53.2173,59.6468,83.6043,276.5101,7.6105e-05,9.24e-06,0.0,0 STARLINK-3134,1 49434U 21104AC  23159.93563718  .00000924  00000-0  76105-4 0  9992,2 49434  53.2173  59.6468 0001330  83.6043 276.5101 15.08839959 88034,6917.881,95.438,540.666,538.825,0.0
49434.0,STARLINK-3134,PAYLOAD,2023-06-09 03:13:27,15.08847395,0.0001275,53.2174,58.7537,93.8582,266.2555,9.2317e-05,1.182e-05,0.0,0 STARLINK-3134,1 49434U 21104AC  23160.13435128  .00001182  00000-0  92317-4 0  9999,2 49434  53.2174  58.7537 0001275  93.8582 266.2555 15.08847395 88066,6917.858,95.437,540.605,538.841,0.0
49434.0,STARLINK-3134,PAYLOAD,2023-06-10 03:04:14,15.08847334,0.0001198,53.218,54.2935,84.2096,275.9033,0.00011634,1.565e-05,0.0,0 STARLINK-3134,1 49434U 21104AC  23161.12795127  .00001565  00000-0  11634-3 0  9994,2 49434  53.2180  54.2935 0001198  84.2096 275.9033 15.08847334 88212,6917.858,95.437,540.552,538.894,0.0
